start=new Date('2023-05-25T00:00:00.000Z').valueOf();
sats=[{"OBJECT_NAME":"STARLINK-4610","REF_FRAME":"TEME","MEAN_MOTION":"15.08837279","ARG_OF_PERICENTER":"86.6753","NORAD_CAT_ID":"53610","FILE":"3916549","MEAN_MOTION_DDOT":"0.0000000000000","OBJECT_ID":"2022-104Y","CENTER_NAME":"EARTH","RCS_SIZE":"LARGE","LAUNCH_DATE":"2022-08-28","INCLINATION":"53.2164","MEAN_MOTION_DOT":"0.00000299","PERIOD":"95.438","REV_AT_EPOCH":"4158","EPOCH":"2023-05-24T06:20:00.242016","TLE_LINE1":"1 53610U 22104Y   23144.26389169  .00000299  00000-0  36886-4 0  9997","MEAN_ELEMENT_THEORY":"SGP4","BSTAR":"0.00003688600000","COUNTRY_CODE":"US","SITE":"AFETR","TLE_LINE2":"2 53610  53.2164 135.1136 0001227  86.6753 273.4380 15.08837279 41580","GP_ID":"232451267","ECCENTRICITY":"0.00012270","PERIAPSIS":"538.905","CLASSIFICATION_TYPE":"U","ELEMENT_SET_NO":"999","APOAPSIS":"540.603","SEMIMAJOR_AXIS":"6917.889","TIME_SYSTEM":"UTC","DECAY_DATE":null,"MEAN_ANOMALY":"273.4380","OBJECT_TYPE":"PAYLOAD","RA_OF_ASC_NODE":"135.1136","EPHEMERIS_TYPE":"0"},{"OBJECT_ID":"2022-104Z","MEAN_MOTION_DDOT":"0.0000000000000","CENTER_NAME":"EARTH","RCS_SIZE":"LARGE","OBJECT_NAME":"STARLINK-4650","REF_FRAME":"TEME","MEAN_MOTION":"15.08836730","ARG_OF_PERICENTER":"89.3946","NORAD_CAT_ID":"53611","FILE":"3916549","COUNTRY_CODE":"US","SITE":"AFETR","LAUNCH_DATE":"2022-08-28","INCLINATION":"53.2159","MEAN_MOTION_DOT":"0.00000960","PERIOD":"95.438","REV_AT_EPOCH":"4170","EPOCH":"2023-05-24T06:34:32.613312","TLE_LINE1":"1 53611U 22104Z   23144.27398858  .00000960  00000-0  78388-4 0  9992","BSTAR":"0.00007838800000","MEAN_ELEMENT_THEORY":"SGP4","APOAPSIS":"540.562","SEMIMAJOR_AXIS":"6917.890","GP_ID":"232451518","TLE_LINE2":"2 53611  53.2159 135.1747 0001166  89.3946 270.7179 15.08836730 41700","ECCENTRICITY":"0.00011660","PERIAPSIS":"538.949","CLASSIFICATION_TYPE":"U","ELEMENT_SET_NO":"999","RA_OF_ASC_NODE":"135.1747","EPHEMERIS_TYPE":"0","TIME_SYSTEM":"UTC","DECAY_DATE":null,"OBJECT_TYPE":"PAYLOAD","MEAN_ANOMALY":"270.7179"},{"EPHEMERIS_TYPE":"0","RA_OF_ASC_NODE":"134.4912","DECAY_DATE":null,"TIME_SYSTEM":"UTC","MEAN_ANOMALY":"270.5085","OBJECT_TYPE":"PAYLOAD","SEMIMAJOR_AXIS":"6917.875","APOAPSIS":"540.601","ECCENTRICITY":"0.00012450","GP_ID":"232449773","TLE_LINE2":"2 53612  53.2167 134.4912 0001245  89.6050 270.5085 15.08841805 41605","ELEMENT_SET_NO":"999","CLASSIFICATION_TYPE":"U","PERIAPSIS":"538.879","COUNTRY_CODE":"US","SITE":"AFETR","REV_AT_EPOCH":"4160","PERIOD":"95.437","MEAN_MOTION_DOT":"0.00001066","LAUNCH_DATE":"2022-08-28","INCLINATION":"53.2167","MEAN_ELEMENT_THEORY":"SGP4","BSTAR":"0.00008507800000","TLE_LINE1":"1 53612U 22104AA  23144.39172646  .00001066  00000-0  85078-4 0  9993","EPOCH":"2023-05-24T09:24:05.166144","RCS_SIZE":"LARGE","CENTER_NAME":"EARTH","MEAN_MOTION_DDOT":"0.0000000000000","OBJECT_ID":"2022-104AA","FILE":"3916549","ARG_OF_PERICENTER":"89.6050","NORAD_CAT_ID":"53612","MEAN_MOTION":"15.08841805","OBJECT_NAME":"STARLINK-4658","REF_FRAME":"TEME"},{"RA_OF_ASC_NODE":"134.5343","EPHEMERIS_TYPE":"0","DECAY_DATE":null,"TIME_SYSTEM":"UTC","OBJECT_TYPE":"PAYLOAD","MEAN_ANOMALY":"286.5671","SEMIMAJOR_AXIS":"6917.868","APOAPSIS":"540.591","ECCENTRICITY":"0.00012400","GP_ID":"232450021","TLE_LINE2":"2 53613  53.2160 134.5343 0001240  73.5457 286.5671 15.08844096 41609","CLASSIFICATION_TYPE":"U","PERIAPSIS":"538.875","ELEMENT_SET_NO":"999","COUNTRY_CODE":"US","SITE":"AFETR","PERIOD":"95.437","LAUNCH_DATE":"2022-08-28","MEAN_MOTION_DOT":"-0.00000150","INCLINATION":"53.2160","REV_AT_EPOCH":"4160","TLE_LINE1":"1 53613U 22104AB  23144.39910177 -.00000150  00000-0  86479-5 0  9994","EPOCH":"2023-05-24T09:34:42.392928","MEAN_ELEMENT_THEORY":"SGP4","BSTAR":"0.00000864790000","CENTER_NAME":"EARTH","MEAN_MOTION_DDOT":"0.0000000000000","OBJECT_ID":"2022-104AB","RCS_SIZE":"LARGE","MEAN_MOTION":"15.08844096","REF_FRAME":"TEME","OBJECT_NAME":"STARLINK-4655","FILE":"3916549","NORAD_CAT_ID":"53613","ARG_OF_PERICENTER":"73.5457"},{"MEAN_ANOMALY":"263.3275","OBJECT_TYPE":"PAYLOAD","DECAY_DATE":null,"TIME_SYSTEM":"UTC","RA_OF_ASC_NODE":"124.6697","EPHEMERIS_TYPE":"0","PERIAPSIS":"538.908","CLASSIFICATION_TYPE":"U","ELEMENT_SET_NO":"999","TLE_LINE2":"2 53616  53.2156 124.6697 0001204  96.7854 263.3275 15.08841391 41841","GP_ID":"232450767","ECCENTRICITY":"0.00012040","APOAPSIS":"540.574","SEMIMAJOR_AXIS":"6917.876","EPOCH":"2023-05-24T08:01:59.554848","TLE_LINE1":"1 53616U 22104AE  23144.33471707  .00001839  00000-0  13361-3 0  9994","MEAN_ELEMENT_THEORY":"SGP4","BSTAR":"0.00013361000000","MEAN_MOTION_DOT":"0.00001839","LAUNCH_DATE":"2022-08-28","INCLINATION":"53.2156","PERIOD":"95.437","REV_AT_EPOCH":"4184","SITE":"AFETR","COUNTRY_CODE":"US","REF_FRAME":"TEME","OBJECT_NAME":"STARLINK-4605","MEAN_MOTION":"15.08841391","NORAD_CAT_ID":"53616","ARG_OF_PERICENTER":"96.7854","FILE":"3916549","MEAN_MOTION_DDOT":"0.0000000000000","OBJECT_ID":"2022-104AE","CENTER_NAME":"EARTH","RCS_SIZE":"LARGE"},{"APOAPSIS":"540.581","SEMIMAJOR_AXIS":"6917.884","ELEMENT_SET_NO":"999","PERIAPSIS":"538.917","CLASSIFICATION_TYPE":"U","TLE_LINE2":"2 53617  53.2157 134.4658 0001202  92.3312 267.7818 15.08838817 41602","GP_ID":"232451018","ECCENTRICITY":"0.00012020","EPHEMERIS_TYPE":"0","RA_OF_ASC_NODE":"134.4658","MEAN_ANOMALY":"267.7818","OBJECT_TYPE":"PAYLOAD","TIME_SYSTEM":"UTC","DECAY_DATE":null,"RCS_SIZE":"LARGE","MEAN_MOTION_DDOT":"0.0000000000000","OBJECT_ID":"2022-104AF","CENTER_NAME":"EARTH","ARG_OF_PERICENTER":"92.3312","NORAD_CAT_ID":"53617","FILE":"3916549","OBJECT_NAME":"STARLINK-4601","REF_FRAME":"TEME","MEAN_MOTION":"15.08838817","SITE":"AFETR","COUNTRY_CODE":"US","MEAN_ELEMENT_THEORY":"SGP4","BSTAR":"0.00010461000000","EPOCH":"2023-05-24T09:18:46.999872","TLE_LINE1":"1 53617U 22104AF  23144.38804398  .00001377  00000-0  10461-3 0  9991","REV_AT_EPOCH":"4160","MEAN_MOTION_DOT":"0.00001377","LAUNCH_DATE":"2022-08-28","INCLINATION":"53.2157","PERIOD":"95.438"},{"ELEMENT_SET_NO":"999","PERIAPSIS":"538.928","CLASSIFICATION_TYPE":"U","TLE_LINE2":"2 53618  53.2158 134.3954 0001193  86.8177 273.2952 15.08837470 41029","GP_ID":"232450274","ECCENTRICITY":"0.00011930","APOAPSIS":"540.578","SEMIMAJOR_AXIS":"6917.888","MEAN_ANOMALY":"273.2952","OBJECT_TYPE":"PAYLOAD","DECAY_DATE":null,"TIME_SYSTEM":"UTC","EPHEMERIS_TYPE":"0","RA_OF_ASC_NODE":"134.3954","NORAD_CAT_ID":"53618","ARG_OF_PERICENTER":"86.8177","FILE":"3916549","REF_FRAME":"TEME","OBJECT_NAME":"STARLINK-4604","MEAN_MOTION":"15.08837470","RCS_SIZE":"LARGE","MEAN_MOTION_DDOT":"0.0000000000000","OBJECT_ID":"2022-104AG","CENTER_NAME":"EARTH","BSTAR":"0.00008480700000","MEAN_ELEMENT_THEORY":"SGP4","EPOCH":"2023-05-24T09:02:52.138176","TLE_LINE1":"1 53618U 22104AG  23144.37699234  .00001062  00000-0  84807-4 0  9999","REV_AT_EPOCH":"4102","INCLINATION":"53.2158","LAUNCH_DATE":"2022-08-28","MEAN_MOTION_DOT":"0.00001062","PERIOD":"95.438","SITE":"AFETR","COUNTRY_CODE":"US"},{"RCS_SIZE":"LARGE","OBJECT_ID":"2022-104AH","MEAN_MOTION_DDOT":"0.0000000000000","CENTER_NAME":"EARTH","NORAD_CAT_ID":"53619","ARG_OF_PERICENTER":"88.9209","FILE":"3916549","REF_FRAME":"TEME","OBJECT_NAME":"STARLINK-4609","MEAN_MOTION":"15.08837005","SITE":"AFETR","COUNTRY_CODE":"US","MEAN_ELEMENT_THEORY":"SGP4","BSTAR":"0.00007139900000","EPOCH":"2023-05-24T09:13:28.856928","TLE_LINE1":"1 53619U 22104AH  23144.38436177  .00000849  00000-0  71399-4 0  9990","REV_AT_EPOCH":"4160","LAUNCH_DATE":"2022-08-28","MEAN_MOTION_DOT":"0.00000849","INCLINATION":"53.2160","PERIOD":"95.438","APOAPSIS":"540.549","SEMIMAJOR_AXIS":"6917.890","ELEMENT_SET_NO":"999","PERIAPSIS":"538.960","CLASSIFICATION_TYPE":"U","GP_ID":"232450522","TLE_LINE2":"2 53619  53.2160 134.4439 0001149  88.9209 271.1914 15.08837005 41605","ECCENTRICITY":"0.00011490","EPHEMERIS_TYPE":"0","RA_OF_ASC_NODE":"134.4439","MEAN_ANOMALY":"271.1914","OBJECT_TYPE":"PAYLOAD","DECAY_DATE":null,"TIME_SYSTEM":"UTC"},{"RA_OF_ASC_NODE":"134.9457","EPHEMERIS_TYPE":"0","TIME_SYSTEM":"UTC","DECAY_DATE":null,"OBJECT_TYPE":"PAYLOAD","MEAN_ANOMALY":"276.1346","SEMIMAJOR_AXIS":"6917.883","APOAPSIS":"540.495","ECCENTRICITY":"0.00010800","TLE_LINE2":"2 53620  53.2152 134.9457 0001080  83.9769 276.1346 15.08839158 41697","GP_ID":"232451268","CLASSIFICATION_TYPE":"U","PERIAPSIS":"539.001","ELEMENT_SET_NO":"999","COUNTRY_CODE":"US","SITE":"AFETR","PERIOD":"95.438","MEAN_MOTION_DOT":"0.00001671","LAUNCH_DATE":"2022-08-28","INCLINATION":"53.2152","REV_AT_EPOCH":"4169","TLE_LINE1":"1 53620U 22104AJ  23144.23713979  .00001671  00000-0  12305-3 0  9999","EPOCH":"2023-05-24T05:41:28.877856","BSTAR":"0.00012305000000","MEAN_ELEMENT_THEORY":"SGP4","CENTER_NAME":"EARTH","MEAN_MOTION_DDOT":"0.0000000000000","OBJECT_ID":"2022-104AJ","RCS_SIZE":"LARGE","MEAN_MOTION":"15.08839158","OBJECT_NAME":"STARLINK-4615","REF_FRAME":"TEME","FILE":"3916549","ARG_OF_PERICENTER":"83.9769","NORAD_CAT_ID":"53620"},{"MEAN_MOTION":"15.08840476","REF_FRAME":"TEME","OBJECT_NAME":"STARLINK-4608","FILE":"3916549","ARG_OF_PERICENTER":"91.7490","NORAD_CAT_ID":"53621","CENTER_NAME":"EARTH","OBJECT_ID":"2022-104AK","MEAN_MOTION_DDOT":"0.0000000000000","RCS_SIZE":"LARGE","PERIOD":"95.438","MEAN_MOTION_DOT":"0.00001249","LAUNCH_DATE":"2022-08-28","INCLINATION":"53.2160","REV_AT_EPOCH":"4160","TLE_LINE1":"1 53621U 22104AK  23144.38067317  .00001249  00000-0  96548-4 0  9997","EPOCH":"2023-05-24T09:08:10.161888","MEAN_ELEMENT_THEORY":"SGP4","BSTAR":"0.00009654800000","COUNTRY_CODE":"US","SITE":"AFETR","ECCENTRICITY":"0.00011910","TLE_LINE2":"2 53621  53.2160 134.4181 0001191  91.7490 268.3638 15.08840476 41600","GP_ID":"232451519","CLASSIFICATION_TYPE":"U","PERIAPSIS":"538.920","ELEMENT_SET_NO":"999","SEMIMAJOR_AXIS":"6917.879","APOAPSIS":"540.568","TIME_SYSTEM":"UTC","DECAY_DATE":null,"OBJECT_TYPE":"PAYLOAD","MEAN_ANOMALY":"268.3638","RA_OF_ASC_NODE":"134.4181","EPHEMERIS_TYPE":"0"}];
